0 DELTA 1 DEB
1 21367U 75052CM  13281.19073882  .00000007  00000-0  10271-3 0  3402
2 21367 099.7909 167.3098 0073944 291.6098 235.9673 13.30310791 86524
0 DELTA 1 DEB
1 21367U 75052CM  13283.28562818  .00000034  00000-0  15947-3 0  3412
2 21367 099.7908 169.2993 0073878 286.5612 188.6850 13.30311356 86809
0 DELTA 1 DEB
1 21367U 75052CM  13285.54262884  .00000022  00000-0  13428-3 0  3423
2 21367 099.7905 171.4429 0073818 281.1159 197.7830 13.30311244 87105
0 DELTA 1 DEB
1 21367U 75052CM  13287.63739362  .00000022  00000-0  13442-3 0  3432
2 21367 099.7903 173.4323 0073770 276.0675 149.9019 13.30311021 87382
0 DELTA 1 DEB
1 21367U 75052CM  13289.66565655  .00000006  00000-0  10075-3 0  3441
2 21367 099.7898 175.3586 0073722 271.1694 143.5456 13.30311169 87659
0 DELTA 1 DEB
1 21367U 75052CM  13292.16816201 -.00000007  00000-0  74965-4 0  3458
2 21367 099.7895 177.7353 0073689 265.1294 248.4045 13.30311725 87988
0 DELTA 1 DEB
1 21367U 75052CM  13294.19867343  .00000000  00000-0  89475-4 0  3461
2 21367 099.7893 179.6636 0073629 260.2243 252.8221 13.30311966 88258
